{
"type": "FeatureCollection",
"name": "rppns",
"crs": { "type": "name", "properties": { "name": "urn:ogc:def:crs:OGC:1.3:CRS84" } },
"features": [
{ "type": "Feature", "properties": { "rppnid": 1428, "nome": "RPPN Santuário Ecológico Mãe Terra", "uf": "DF", "status": "criada", "area_rppn_ha": 2.38 }, "geometry": { "type": "Polygon", "coordinates": [ [ [ -47.771113861332054, -15.5844437384951 ], [ -47.771968436377122, -15.584521024113149 ], [ -47.771955001077714, -15.582478325486194 ], [ -47.770790856924911, -15.582502752535889 ], [ -47.771113861332054, -15.5844437384951 ] ] ] } },
{ "type": "Feature", "properties": { "rppnid": 1475, "nome": "Bem Viver", "uf": "GO", "status": "criada", "area_rppn_ha": 21.31 }, "geometry": { "type": "Polygon", "coordinates": [ [ [ -48.940081019073332, -15.77770308670838 ], [ -48.941633898994645, -15.776741762419793 ], [ -48.942355179225743, -15.776770633233664 ], [ -48.942381029063526, -15.776465113117618 ], [ -48.940218747138992, -15.776446366186544 ], [ -48.940228114639368, -15.77574972070688 ], [ -48.941182652629749, -15.775105031490678 ], [ -48.942231231549989, -15.773452944388069 ], [ -48.942128327482543, -15.767733519889678 ], [ -48.940412128400659, -15.766948808352067 ], [ -48.939679302203331, -15.777611998251199 ], [ -48.940081019073332, -15.77770308670838 ] ] ] } },
{ "type": "Feature", "properties": { "rppnid": 1454, "nome": "Mimosa", "uf": "GO", "status": "criada", "area_rppn_ha": 2.02 }, "geometry": { "type": "Polygon", "coordinates": [ [ [ -48.882455738660646, -15.836711748088529 ], [ -48.881827729850485, -15.83776382197399 ], [ -48.883337830449477, -15.837770621566721 ], [ -48.883425103031968, -15.837232791300755 ], [ -48.883859560813065, -15.836849329547592 ], [ -48.881370168450594, -15.836290037483865 ], [ -48.881317431149064, -15.836469323642419 ], [ -48.882455738660646, -15.836711748088529 ] ] ] } },
{ "type": "Feature", "properties": { "rppnid": 1346, "nome": "Murundu", "uf": "GO", "status": "criada", "area_rppn_ha": 40.9 }, "geometry": { "type": "Polygon", "coordinates": [ [ [ -47.541179845183869, -14.103293058450094 ], [ -47.54207476759639, -14.104975141832227 ], [ -47.544526086667844, -14.102790024826119 ], [ -47.549023395665351, -14.098781140794996 ], [ -47.548948350593648, -14.098616342133541 ], [ -47.548949463907142, -14.09835831970155 ], [ -47.549097850302886, -14.098159717920524 ], [ -47.549082533645553, -14.097889131485113 ], [ -47.548943396401413, -14.09766222491076 ], [ -47.548820058614261, -14.097482760122784 ], [ -47.548786712866857, -14.097355553101716 ], [ -47.548831966055651, -14.09715488103382 ], [ -47.548700019034293, -14.096825271994495 ], [ -47.543753303463632, -14.10107974018516 ], [ -47.541179845183869, -14.103293058450094 ] ] ] } },
{ "type": "Feature", "properties": { "rppnid": 1345, "nome": "Rio Almas", "uf": "GO", "status": "criada", "area_rppn_ha": 62.1 }, "geometry": { "type": "Polygon", "coordinates": [ [ [ -47.403014685114051, -13.701669970015574 ], [ -47.402316144081915, -13.701986662430805 ], [ -47.402201906665603, -13.702239400306205 ], [ -47.402062803511768, -13.702900586260764 ], [ -47.40226304929314, -13.704390789665622 ], [ -47.402808038168196, -13.706430590130317 ], [ -47.403032533983776, -13.707750785957078 ], [ -47.40292528411964, -13.70826357717533 ], [ -47.402392787974563, -13.709316103854061 ], [ -47.401891908785103, -13.709743092978069 ], [ -47.401517821533389, -13.709752240064505 ], [ -47.401203927081767, -13.70950998688733 ], [ -47.401008054723107, -13.709559685791698 ], [ -47.400080011405009, -13.710111350231973 ], [ -47.399841668566509, -13.710346951905635 ], [ -47.399661131883867, -13.71052362516099 ], [ -47.399017536712975, -13.710903025083384 ], [ -47.398848359254643, -13.711142743167512 ], [ -47.398118581067024, -13.711626430145884 ], [ -47.398157509255348, -13.711664993750361 ], [ -47.399671650877124, -13.713168826630541 ], [ -47.400589848485915, -13.712383790045587 ], [ -47.400581041235625, -13.71407199703555 ], [ -47.402795685082772, -13.716271476498919 ], [ -47.40402649570246, -13.715184414710794 ], [ -47.405412310008792, -13.717557000686664 ], [ -47.407349686407464, -13.717780807296711 ], [ -47.405516797567721, -13.709987470269025 ], [ -47.40239152101875, -13.711181414411802 ], [ -47.40210128777543, -13.710776210452948 ], [ -47.404952976913663, -13.707590074637142 ], [ -47.403595796387037, -13.701819183365211 ], [ -47.403583918467199, -13.701768882936191 ], [ -47.403014685114051, -13.701669970015574 ] ] ] } },
{ "type": "Feature", "properties": { "rppnid": 1502, "nome": "RPPN Acauã", "uf": "GO", "status": "criada", "area_rppn_ha": 1.7 }, "geometry": { "type": "Polygon", "coordinates": [ [ [ -47.469884897650239, -13.779359022132383 ], [ -47.469685102479836, -13.779196868491388 ], [ -47.469390030603748, -13.779300928998945 ], [ -47.469321220472935, -13.779526040942496 ], [ -47.467812072486353, -13.781740679167619 ], [ -47.468497394825967, -13.781924703642307 ], [ -47.469884897650239, -13.779359022132383 ] ] ] } },
{ "type": "Feature", "properties": { "rppnid": 1456, "nome": "RPPN Avá-Canoeiro", "uf": "GO", "status": "criada", "area_rppn_ha": 1017.5 }, "geometry": { "type": "Polygon", "coordinates": [ [ [ -47.524513059410133, -13.841122252405821 ], [ -47.49456863863076, -13.801348353046846 ], [ -47.491195832266612, -13.804089420358578 ], [ -47.492718102573853, -13.806801399618124 ], [ -47.493150857004238, -13.810514974780995 ], [ -47.494318326344853, -13.817876344225443 ], [ -47.493468903849219, -13.824277516483027 ], [ -47.496708933660706, -13.829890010243805 ], [ -47.497228870165102, -13.829774764568439 ], [ -47.497625588214405, -13.829653094053288 ], [ -47.497978580586214, -13.829531958879071 ], [ -47.498403290285772, -13.82936501038006 ], [ -47.499135796376152, -13.829303608044667 ], [ -47.499903594299063, -13.829153306063557 ], [ -47.500630827119245, -13.829083099432788 ], [ -47.501195282740333, -13.82900750470402 ], [ -47.501533105006416, -13.828963854428448 ], [ -47.501855252676179, -13.828733892861877 ], [ -47.502071135167668, -13.828414129111572 ], [ -47.502067262544642, -13.82808639923805 ], [ -47.502368915577485, -13.827876702866643 ], [ -47.50274223377987, -13.827858617728584 ], [ -47.503116964831946, -13.827851629954985 ], [ -47.50326666096187, -13.828017238473894 ], [ -47.503549210526366, -13.828087532144696 ], [ -47.503941906195095, -13.828178292777972 ], [ -47.504321407509039, -13.828314721010601 ], [ -47.504751686179013, -13.828392538463167 ], [ -47.505089445606821, -13.82837779430017 ], [ -47.505652761887909, -13.829068590870262 ], [ -47.506996705465582, -13.832887245385932 ], [ -47.507167756358115, -13.835304185919645 ], [ -47.510547196441685, -13.838870237696412 ], [ -47.515657246034671, -13.842656149784487 ], [ -47.515959993771446, -13.842548060901004 ], [ -47.516369160369294, -13.842534461680028 ], [ -47.516695534258915, -13.842611423517372 ], [ -47.517064681169245, -13.842624975977461 ], [ -47.51750192538843, -13.842617229637355 ], [ -47.517816082892473, -13.842495560163073 ], [ -47.518152490993259, -13.842319455589882 ], [ -47.51681834173791, -13.840826602409878 ], [ -47.518560898176794, -13.838062616980039 ], [ -47.519717119079758, -13.838900225593971 ], [ -47.521101911386651, -13.840965316146979 ], [ -47.521287514135985, -13.841097745984264 ], [ -47.521504765205599, -13.84101835665067 ], [ -47.521915820770133, -13.840811666012735 ], [ -47.52230138531921, -13.840753309548269 ], [ -47.522414201014328, -13.840926419574233 ], [ -47.522477218724262, -13.841000032604509 ], [ -47.522653597304661, -13.840954399808975 ], [ -47.522818583049734, -13.841018289635473 ], [ -47.523071942216873, -13.840883598559046 ], [ -47.523376970188728, -13.840927525143751 ], [ -47.523556664559706, -13.841086394070594 ], [ -47.523578579261581, -13.841189430310342 ], [ -47.523758890570818, -13.84127692173614 ], [ -47.523970585976073, -13.841445307922662 ], [ -47.524071903787323, -13.841332509654661 ], [ -47.524246917793931, -13.841194739991005 ], [ -47.524513059410133, -13.841122252405821 ] ] ] } },
{ "type": "Feature", "properties": { "rppnid": 1627, "nome": "RPPN Barriguda", "uf": "GO", "status": "criada", "area_rppn_ha": 2.77 }, "geometry": { "type": "Polygon", "coordinates": [ [ [ -48.886424473473667, -15.809108637610466 ], [ -48.884610011339738, -15.810948170980472 ], [ -48.88513509025185, -15.811887083936622 ], [ -48.885895103361861, -15.810900604167909 ], [ -48.886931838016373, -15.809588019602 ], [ -48.886424473473667, -15.809108637610466 ] ] ] } },
{ "type": "Feature", "properties": { "rppnid": 1343, "nome": "RPPN Flor das Águas do Cerrado", "uf": "GO", "status": "criada", "area_rppn_ha": 27.8 }, "geometry": { "type": "Polygon", "coordinates": [ [ [ -47.398118581067024, -13.711626430145884 ], [ -47.397815799578986, -13.711987250293825 ], [ -47.397398372834282, -13.711978922709696 ], [ -47.396538314766374, -13.712383637858522 ], [ -47.39599469247522, -13.712224741561888 ], [ -47.395559712055011, -13.712362769834861 ], [ -47.394199759212995, -13.713030006548472 ], [ -47.392632766091474, -13.713102198417731 ], [ -47.391972246207175, -13.712916687155863 ], [ -47.391448638631744, -13.712626125028894 ], [ -47.390923449432158, -13.712334402317694 ], [ -47.388255515549588, -13.713438916316891 ], [ -47.387897782692775, -13.713677198795823 ], [ -47.386949984302412, -13.713870585496014 ], [ -47.385344255484604, -13.714080170546524 ], [ -47.384664726037947, -13.715947261209971 ], [ -47.392066583474055, -13.716408859807032 ], [ -47.391988625827828, -13.713438942022602 ], [ -47.394316398876107, -13.713259091969976 ], [ -47.395460187921699, -13.712709600242405 ], [ -47.395975080440159, -13.712769299258342 ], [ -47.39757639182573, -13.712209398369268 ], [ -47.397919648235089, -13.712303375686369 ], [ -47.39855187794236, -13.713215660001302 ], [ -47.399645797556225, -13.713143779390844 ], [ -47.398157509255348, -13.711664993750361 ], [ -47.398118581067024, -13.711626430145884 ] ] ] } },
{ "type": "Feature", "properties": { "rppnid": 1703, "nome": "RPPN Grota das Netas", "uf": "GO", "status": "criada", "area_rppn_ha": 1151.05 }, "geometry": { "type": "Polygon", "coordinates": [ [ [ -47.832834749357652, -15.248756371261695 ], [ -47.832482689078454, -15.249044316514331 ], [ -47.832083425074302, -15.249135068867696 ], [ -47.831629958215132, -15.24897136656751 ], [ -47.831240169767504, -15.249109774181713 ], [ -47.830461720277363, -15.249102804827283 ], [ -47.828932624864272, -15.249602307608141 ], [ -47.828030412077702, -15.250100216005734 ], [ -47.826862427930479, -15.250842523272265 ], [ -47.824130161573535, -15.255933969911714 ], [ -47.830777512302717, -15.256501181430094 ], [ -47.832752541162442, -15.257971560441629 ], [ -47.831343969455411, -15.261781126714595 ], [ -47.830338972176875, -15.26605098248069 ], [ -47.828761140733207, -15.267573661077741 ], [ -47.826044310647518, -15.267232251389885 ], [ -47.824377758744212, -15.265750615013381 ], [ -47.825030546633414, -15.263864013157422 ], [ -47.821833276396518, -15.263810385294665 ], [ -47.821674758857142, -15.266442087466183 ], [ -47.81861189868706, -15.269204292780493 ], [ -47.815021461401301, -15.268732851443257 ], [ -47.813707696787617, -15.268279811222095 ], [ -47.812525469942045, -15.266791988932511 ], [ -47.815582917626863, -15.259991467976105 ], [ -47.819049418584008, -15.258445212997213 ], [ -47.813127139977396, -15.259482497871103 ], [ -47.812595099823078, -15.261976924591629 ], [ -47.812976269300101, -15.262375669492117 ], [ -47.812495810798808, -15.262876180638321 ], [ -47.812201415883614, -15.264011984655612 ], [ -47.812099208787366, -15.264580541117256 ], [ -47.811639134232216, -15.265501305877816 ], [ -47.81127758037735, -15.266463914294437 ], [ -47.811604841501342, -15.267487599904793 ], [ -47.811219274502911, -15.268170260201412 ], [ -47.811123319572488, -15.268789315152549 ], [ -47.809867487336511, -15.2708351063092 ], [ -47.810561143040196, -15.271621721772842 ], [ -47.810874486117292, -15.271935248324048 ], [ -47.812091342895528, -15.270742160871329 ], [ -47.812738761210163, -15.270690948530987 ], [ -47.814382298553959, -15.272053118610408 ], [ -47.816822302474392, -15.271989378884969 ], [ -47.818114203673758, -15.271200474278777 ], [ -47.818871116995389, -15.27238130162757 ], [ -47.818711274073912, -15.273272377595429 ], [ -47.820487745162559, -15.274434216387377 ], [ -47.822166375930898, -15.275326236021273 ], [ -47.822984435230701, -15.27522641885453 ], [ -47.823773343492185, -15.276298983169937 ], [ -47.824591998339585, -15.276424126429895 ], [ -47.826556585725754, -15.278719602038533 ], [ -47.826281656620026, -15.280531807004182 ], [ -47.827818723640632, -15.280325799166237 ], [ -47.82961680040367, -15.282410288399936 ], [ -47.829831788380595, -15.283932890482477 ], [ -47.830894594723475, -15.285816137779513 ], [ -47.832706118031417, -15.286416555981681 ], [ -47.832524941971322, -15.28733581073541 ], [ -47.833020860843611, -15.289155864566187 ], [ -47.833979076797313, -15.289823339442354 ], [ -47.835088752777303, -15.290060349058349 ], [ -47.835385790656247, -15.291072797132305 ], [ -47.836613407674818, -15.292011215981196 ], [ -47.837485200039538, -15.29230505575487 ], [ -47.837729606046629, -15.293691704228952 ], [ -47.839133913212173, -15.293792460134288 ], [ -47.839952853910447, -15.29572804987972 ], [ -47.841176741159416, -15.296303693390522 ], [ -47.842265123258308, -15.296738898366526 ], [ -47.842954326568453, -15.296311712841044 ], [ -47.844043083107415, -15.296147403314595 ], [ -47.845315795290141, -15.297175051191882 ], [ -47.846324987780115, -15.297767393737059 ], [ -47.847139380849505, -15.297743024627874 ], [ -47.848021582130613, -15.297056425578289 ], [ -47.848128871168335, -15.296547679551423 ], [ -47.848215068464405, -15.29623382704407 ], [ -47.848464376015336, -15.295954382995232 ], [ -47.849522624265788, -15.294601735934222 ], [ -47.850986282087106, -15.293470964161354 ], [ -47.851157037377405, -15.292956622216346 ], [ -47.850848280717699, -15.291860817593781 ], [ -47.852072885858099, -15.289664688035176 ], [ -47.851223683218656, -15.288152116135555 ], [ -47.852293057962484, -15.286360311327345 ], [ -47.852276025879171, -15.285562342892231 ], [ -47.853922883062545, -15.283557347812772 ], [ -47.854402344862706, -15.282823852224992 ], [ -47.854166337632996, -15.281376348754483 ], [ -47.85491696786282, -15.279657513579183 ], [ -47.855823840913885, -15.279116619788498 ], [ -47.855577630142264, -15.278076829960106 ], [ -47.856042089921019, -15.277370257438779 ], [ -47.856324672130071, -15.276451693414977 ], [ -47.855906876585415, -15.275265528604717 ], [ -47.856388472465511, -15.27417590218711 ], [ -47.857857356973732, -15.272172715834145 ], [ -47.858074845189236, -15.270591004125027 ], [ -47.858302775484894, -15.270027524265402 ], [ -47.857714102223497, -15.268519681934512 ], [ -47.857531696684426, -15.267848818934388 ], [ -47.857277509595733, -15.266926537721332 ], [ -47.856559336325802, -15.266661509601789 ], [ -47.856433108003628, -15.266704031247254 ], [ -47.851814997204457, -15.267127748559961 ], [ -47.851343477104265, -15.26655421314916 ], [ -47.849973940196058, -15.265900075984858 ], [ -47.849607206751365, -15.265590181279922 ], [ -47.849047688312446, -15.265437173798045 ], [ -47.848298932384971, -15.265821226169075 ], [ -47.848090705489646, -15.266302444435098 ], [ -47.846732471819443, -15.266720252356057 ], [ -47.84374722587819, -15.266466193352567 ], [ -47.84315281431018, -15.266133257450049 ], [ -47.841614695913364, -15.26598172328244 ], [ -47.840666575631886, -15.265393073097178 ], [ -47.839810250765026, -15.265258345939973 ], [ -47.838402804335352, -15.26567076796073 ], [ -47.83726390605316, -15.265679237301752 ], [ -47.837030175662669, -15.265656277854882 ], [ -47.837261195150724, -15.265166107123397 ], [ -47.837683178433046, -15.264763469895065 ], [ -47.837377019432274, -15.264487645715466 ], [ -47.838034237719803, -15.263562722587924 ], [ -47.838179503480497, -15.262534734227227 ], [ -47.837620174234488, -15.261647349429388 ], [ -47.837283448622735, -15.260751092434102 ], [ -47.837781624635277, -15.259400638761941 ], [ -47.837837314401156, -15.256137156924609 ], [ -47.836254676589107, -15.252033987806188 ], [ -47.835885180457716, -15.251043670696406 ], [ -47.83501402262619, -15.251414411483951 ], [ -47.834560424883797, -15.250873926540981 ], [ -47.83456503943566, -15.249733920598658 ], [ -47.833554170663952, -15.249183047141189 ], [ -47.832834749357652, -15.248756371261695 ] ] ] } },
{ "type": "Feature", "properties": { "rppnid": 1453, "nome": "RPPN Lavrinhas", "uf": "GO", "status": "criada", "area_rppn_ha": 1.24 }, "geometry": { "type": "Polygon", "coordinates": [ [ [ -48.883154636676629, -15.83649639666503 ], [ -48.881408554426883, -15.836135458002031 ], [ -48.881370168450594, -15.836290037483865 ], [ -48.883859560813065, -15.836849329547592 ], [ -48.884113331427677, -15.836491660827949 ], [ -48.883743719536703, -15.836232264643428 ], [ -48.883627376128487, -15.835878482473886 ], [ -48.883280228682146, -15.835774350110166 ], [ -48.882664922420865, -15.835151594661228 ], [ -48.882518416642235, -15.835175643249977 ], [ -48.883258786112741, -15.835933251750896 ], [ -48.883154636676629, -15.83649639666503 ] ] ] } },
{ "type": "Feature", "properties": { "rppnid": 1474, "nome": "RPPN Vale das Copaíbas", "uf": "GO", "status": "criada", "area_rppn_ha": 9.5 }, "geometry": { "type": "Polygon", "coordinates": [ [ [ -48.976267131600238, -15.888555858716682 ], [ -48.978476355665073, -15.887148439680578 ], [ -48.981072340457075, -15.887802217200937 ], [ -48.981528413492981, -15.886885286035882 ], [ -48.976583042227695, -15.886120717972494 ], [ -48.976354549143608, -15.886413775009817 ], [ -48.975957660771805, -15.886582189208303 ], [ -48.975517532686382, -15.886621077847634 ], [ -48.975414341962605, -15.88656752383708 ], [ -48.974964746075372, -15.886572890676215 ], [ -48.974655198822035, -15.886895184757208 ], [ -48.974429518002687, -15.886953428575113 ], [ -48.976267131600238, -15.888555858716682 ] ] ] } },
{ "type": "Feature", "properties": { "rppnid": 1956, "nome": "RPPN Cacheira do Campo", "uf": "MG", "status": "em cadastro", "area_rppn_ha": 35.49 }, "geometry": { "type": "Polygon", "coordinates": [ [ [ -46.57370499030543, -19.169782008022786 ], [ -46.573866614034166, -19.169780622451235 ], [ -46.573866614034166, -19.169780622451235 ], [ -46.57390635874826, -19.169960978245353 ], [ -46.57402995348702, -19.169959918558394 ], [ -46.574116376993466, -19.170049525785579 ], [ -46.574116376993466, -19.170049525785579 ], [ -46.574191577363862, -19.169958532688469 ], [ -46.574267635654024, -19.169957880465198 ], [ -46.574372215797951, -19.169956983606792 ], [ -46.574372215797951, -19.169956983606792 ], [ -46.574458639475118, -19.170046590659709 ], [ -46.574667799849777, -19.170044796657841 ], [ -46.57480004359865, -19.169953314020763 ], [ -46.574837214420327, -19.169862646912303 ], [ -46.574856228976238, -19.169862483793366 ], [ -46.57528233933823, -19.16967813138346 ], [ -46.575395567916985, -19.16958681151959 ], [ -46.575405075176583, -19.169586729932579 ], [ -46.575405075176583, -19.169586729932579 ], [ -46.575471625992449, -19.169586158809761 ], [ -46.575575347145289, -19.169494920436094 ], [ -46.575575347145289, -19.169494920436094 ], [ -46.575574488454244, -19.169404579588907 ], [ -46.575678209440092, -19.16931334116752 ], [ -46.575774140659071, -19.169402865979585 ], [ -46.575803521216145, -19.169492961997801 ], [ -46.575812169648046, -19.169402539553214 ], [ -46.575821676895174, -19.169402457945388 ], [ -46.57594269445363, -19.169130374500245 ], [ -46.575952201684551, -19.169130292886774 ], [ -46.576027400609995, -19.169039299130301 ], [ -46.576102599454352, -19.168948305348049 ], [ -46.576157924810992, -19.168767133959577 ], [ -46.576223616264151, -19.168676221761334 ], [ -46.576259927032226, -19.168495213602242 ], [ -46.576278941418266, -19.168495050347161 ], [ -46.576323900241071, -19.168223619725318 ], [ -46.576696510390313, -19.166413456135832 ], [ -46.576696510390313, -19.166413456135832 ], [ -46.5768408905831, -19.165599082384063 ], [ -46.5768408905831, -19.165599082384063 ], [ -46.576773482255305, -19.165509313055814 ], [ -46.576773482255305, -19.165509313055814 ], [ -46.576896214286485, -19.165417910847079 ], [ -46.574582787863314, -19.162094877073766 ], [ -46.574582787863314, -19.162094877073766 ], [ -46.574515382268203, -19.162005106694203 ], [ -46.574438469923777, -19.161915417789938 ], [ -46.574380571302669, -19.161825565842644 ], [ -46.574380571302669, -19.161825565842644 ], [ -46.574236253827017, -19.161646106362422 ], [ -46.574197369025676, -19.161556091351411 ], [ -46.574197369025676, -19.161556091351411 ], [ -46.573959698891905, -19.161558128495869 ], [ -46.57363646746159, -19.161560898519173 ], [ -46.57363646746159, -19.161560898519173 ], [ -46.573322742784718, -19.161563586527642 ], [ -46.573019381786594, -19.16165653360548 ], [ -46.572990861338667, -19.161656777897377 ], [ -46.572924313625151, -19.161657347894579 ], [ -46.572924313625151, -19.161657347894579 ], [ -46.572565624613119, -19.161931464905248 ], [ -46.572194858060683, -19.161934639482539 ], [ -46.572099789702101, -19.16193545335625 ], [ -46.572119659822469, -19.162025631656508 ], [ -46.572169763479081, -19.162296247920267 ], [ -46.572438441888089, -19.163558824884905 ], [ -46.572746866974917, -19.165001757311277 ], [ -46.572766737941102, -19.165091935461255 ], [ -46.572747723913054, -19.165092098324894 ], [ -46.572560154154878, -19.165364749913156 ], [ -46.572371727039744, -19.165547060321355 ], [ -46.572193663235147, -19.16581963018778 ], [ -46.571938685720887, -19.166002510040791 ], [ -46.571711372449762, -19.166094804383889 ], [ -46.571143516148339, -19.166370709620164 ], [ -46.571068315478357, -19.166461701505646 ], [ -46.570936072091435, -19.166553181435198 ], [ -46.571013841079363, -19.16673321281819 ], [ -46.57171993693381, -19.166998214821611 ], [ -46.57199127629152, -19.167537981972579 ], [ -46.572080267519539, -19.167898613399252 ], [ -46.572604796361681, -19.169068649460208 ], [ -46.57273961201814, -19.169248191197077 ], [ -46.573446578679182, -19.169603526469231 ], [ -46.57370499030543, -19.169782008022786 ] ] ] } },
{ "type": "Feature", "properties": { "rppnid": 1824, "nome": "RPPN Gruta do Tamboril", "uf": "MG", "status": "criada", "area_rppn_ha": 7.15 }, "geometry": { "type": "Polygon", "coordinates": [ [ [ -46.9746436631835, -16.320807885225779 ], [ -46.973945020233813, -16.322052296785472 ], [ -46.973318590831987, -16.323033999301973 ], [ -46.975763431053679, -16.324230927132014 ], [ -46.975799767110381, -16.324122159929082 ], [ -46.975992073215409, -16.323704722502754 ], [ -46.976498494159294, -16.322886777664078 ], [ -46.975945122688351, -16.322756426068377 ], [ -46.976374606439251, -16.321731383669842 ], [ -46.976225000245769, -16.321741820228993 ], [ -46.976158782046284, -16.321670155637076 ], [ -46.976053960353418, -16.321481389903482 ], [ -46.975997733355477, -16.321472880774675 ], [ -46.97590399146241, -16.321455687280846 ], [ -46.975725319545738, -16.32136700416617 ], [ -46.975659555144347, -16.321340513057944 ], [ -46.975537835893519, -16.321332616876226 ], [ -46.975434465978211, -16.321288406530105 ], [ -46.9746436631835, -16.320807885225779 ] ] ] } }
]
}
